{"type": "FeatureCollection", "features": [ {"type": "Feature", "properties": {"norad_id": 41774, "name": "SKYSAT-C3", "group": "resource", "lat": -14.97451514007762, "lon": 17.62698105724523, "alt_km": 439.19905769878824, "timestamp": "2025-12-07T18:50:16.381747+00:00", "meta": {"OBJECT_NAME": "SKYSAT-C3", "OBJECT_ID": "2016-058E", "EPOCH": "2025-12-07T01:47:41.064576", "MEAN_MOTION": 15.44107425, "ECCENTRICITY": 0.00015102, "INCLINATION": 96.9299, "RA_OF_ASC_NODE": 15.0858, "ARG_OF_PERICENTER": 103.5824, "MEAN_ANOMALY": 256.5594, "EPHEMERIS_TYPE": 0, "CLASSIFICATION_TYPE": "U", "NORAD_CAT_ID": 41774, "ELEMENT_SET_NO": 999, "REV_AT_EPOCH": 51638, "BSTAR": 0.00057873208, "MEAN_MOTION_DOT": 0.00026445, "MEAN_MOTION_DDOT": 0}, "tle": {"line1": "1 41774U 16058E   25341.07478084  .00026445  00000+0  57873-3 0  9999", "line2": "2 41774  96.9299  15.0858 0001510 103.5824 256.5594 15.44107425516388"}}, "geometry": {"type": "Point", "coordinates": [17.62698105724523, -14.97451514007762]}}, {"type": "Feature", "properties": {"norad_id": 41785, "name": "ALSAT 1B", "group": "resource", "lat": 48.18214224345737, "lon": -15.00347066065679, "alt_km": 647.4785490910272, "timestamp": "2025-12-07T18:50:16.381758+00:00", "meta": {"OBJECT_NAME": "ALSAT 1B", "OBJECT_ID": "2016-059C", "EPOCH": "2025-12-07T07:11:51.235584", "MEAN_MOTION": 14.72067005, "ECCENTRICITY": 0.00105587, "INCLINATION": 97.7816, "RA_OF_ASC_NODE": 353.3244, "ARG_OF_PERICENTER": 119.1656, "MEAN_ANOMALY": 241.0609, "EPHEMERIS_TYPE": 0, "CLASSIFICATION_TYPE": "U", "NORAD_CAT_ID": 41785, "ELEMENT_SET_NO": 999, "REV_AT_EPOCH": 49234, "BSTAR": 0.00014824117, "MEAN_MOTION_DOT": 8.85e-06, "MEAN_MOTION_DDOT": 0}, "tle": {"line1": "1 41785U 16059C   25341.29989856  .00000885  00000+0  14824-3 0  9999", "line2": "2 41785  97.7816 353.3244 0010558 119.1656 241.0609 14.72067005492343"}}, "geometry": {"type": "Point", "coordinates": [-15.00347066065679, 48.18214224345737]}}, {"type": "Feature", "properties": {"norad_id": 41787, "name": "PATHFINDER 1", "group": "resource", "lat": -32.35074760754028, "lon": 159.79856896717996, "alt_km": 685.1616210222519, "timestamp": "2025-12-07T18:50:16.381768+00:00", "meta": {"OBJECT_NAME": "PATHFINDER 1", "OBJECT_ID": "2016-059E", "EPOCH": "2025-12-07T06:25:06.500640", "MEAN_MOTION": 14.67306494, "ECCENTRICITY": 0.00300387, "INCLINATION": 97.8138, "RA_OF_ASC_NODE": 344.295, "ARG_OF_PERICENTER": 97.8185, "MEAN_ANOMALY": 262.6432, "EPHEMERIS_TYPE": 0, "CLASSIFICATION_TYPE": "U", "NORAD_CAT_ID": 41787, "ELEMENT_SET_NO": 999, "REV_AT_EPOCH": 49156, "BSTAR": 0.0002660337, "MEAN_MOTION_DOT": 1.465e-05, "MEAN_MOTION_DDOT": 0}, "tle": {"line1": "1 41787U 16059E   25341.26743635  .00001465  00000+0  26603-3 0  9994", "line2": "2 41787  97.8138 344.2950 0030038  97.8185 262.6432 14.67306494491568"}}, "geometry": {"type": "Point", "coordinates": [159.79856896717996, -32.35074760754028]}}, {"type": "Feature", "properties": {"norad_id": 41790, "name": "SCATSAT 1", "group": "resource", "lat": -2.5212215448159734, "lon": 38.75494367877882, "alt_km": 668.6103884061476, "timestamp": "2025-12-07T18:50:16.381778+00:00", "meta": {"OBJECT_NAME": "SCATSAT 1", "OBJECT_ID": "2016-059H", "EPOCH": "2025-12-07T02:36:41.031936", "MEAN_MOTION": 14.78907408, "ECCENTRICITY": 0.00560074, "INCLINATION": 98.1469, "RA_OF_ASC_NODE": 37.709, "ARG_OF_PERICENTER": 145.8081, "MEAN_ANOMALY": 214.6757, "EPHEMERIS_TYPE": 0, "CLASSIFICATION_TYPE": "U", "NORAD_CAT_ID": 41790, "ELEMENT_SET_NO": 999, "REV_AT_EPOCH": 7319, "BSTAR": 0.00040716964, "MEAN_MOTION_DOT": 3.025e-05, "MEAN_MOTION_DDOT": 0}, "tle": {"line1": "1 41790U 16059H   25341.10880824  .00003025  00000+0  40717-3 0  9999", "line2": "2 41790  98.1469  37.7090 0056007 145.8081 214.6757 14.78907408 73191"}}, "geometry": {"type": "Point", "coordinates": [38.75494367877882, -2.5212215448159734]}}, {"type": "Feature", "properties": {"norad_id": 41875, "name": "GOKTURK 1A", "group": "resource", "lat": 9.940833376727527, "lon": -127.22187417593297, "alt_km": 685.5611539350657, "timestamp": "2025-12-07T18:50:16.381788+00:00", "meta": {"OBJECT_NAME": "GOKTURK 1A", "OBJECT_ID": "2016-073A", "EPOCH": "2025-12-07T05:39:30.614400", "MEAN_MOTION": 14.62769909, "ECCENTRICITY": 0.00012417, "INCLINATION": 98.1437, "RA_OF_ASC_NODE": 233.6745, "ARG_OF_PERICENTER": 82.8677, "MEAN_ANOMALY": 277.2665, "EPHEMERIS_TYPE": 0, "CLASSIFICATION_TYPE": "U", "NORAD_CAT_ID": 41875, "ELEMENT_SET_NO": 999, "REV_AT_EPOCH": 48076, "BSTAR": 0.00021110313, "MEAN_MOTION_DOT": 1.03e-05, "MEAN_MOTION_DDOT": 0}, "tle": {"line1": "1 41875U 16073A   25341.23577100  .00001030  00000+0  21110-3 0  9993", "line2": "2 41875  98.1437 233.6745 0001241  82.8677 277.2665 14.62769909480768"}}, "geometry": {"type": "Point", "coordinates": [-127.22187417593297, 9.940833376727527]}}, {"type": "Feature", "properties": {"norad_id": 41877, "name": "RESOURCESAT-2A", "group": "resource", "lat": 70.27952785434137, "lon": 26.139886282521772, "alt_km": 813.8464259556304, "timestamp": "2025-12-07T18:50:16.381798+00:00", "meta": {"OBJECT_NAME": "RESOURCESAT-2A", "OBJECT_ID": "2016-074A", "EPOCH": "2025-12-07T06:40:29.180064", "MEAN_MOTION": 14.21596065, "ECCENTRICITY": 0.00011246, "INCLINATION": 98.7765, "RA_OF_ASC_NODE": 51.1658, "ARG_OF_PERICENTER": 280.5589, "MEAN_ANOMALY": 79.5461, "EPHEMERIS_TYPE": 0, "CLASSIFICATION_TYPE": "U", "NORAD_CAT_ID": 41877, "ELEMENT_SET_NO": 999, "REV_AT_EPOCH": 46703, "BSTAR": 0.00017750887, "MEAN_MOTION_DOT": 3.45e-06, "MEAN_MOTION_DDOT": 0}, "tle": {"line1": "1 41877U 16074A   25341.27811551  .00000345  00000+0  17751-3 0  9995", "line2": "2 41877  98.7765  51.1658 0001124 280.5589  79.5461 14.21596065467033"}}, "geometry": {"type": "Point", "coordinates": [26.139886282521772, 70.27952785434137]}}, {"type": "Feature", "properties": {"norad_id": 41948, "name": "CARTOSAT-2D", "group": "resource", "lat": 39.21307747548297, "lon": -134.52173761896677, "alt_km": 503.1112642721155, "timestamp": "2025-12-07T18:50:16.381809+00:00", "meta": {"OBJECT_NAME": "CARTOSAT-2D", "OBJECT_ID": "2017-008A", "EPOCH": "2025-12-07T05:34:32.745216", "MEAN_MOTION": 15.19176107, "ECCENTRICITY": 0.00041858, "INCLINATION": 97.4394, "RA_OF_ASC_NODE": 38.8136, "ARG_OF_PERICENTER": 180.1803, "MEAN_ANOMALY": 179.9431, "EPHEMERIS_TYPE": 0, "CLASSIFICATION_TYPE": "U", "NORAD_CAT_ID": 41948, "ELEMENT_SET_NO": 999, "REV_AT_EPOCH": 48843, "BSTAR": 0.00039211583, "MEAN_MOTION_DOT": 8.184e-05, "MEAN_MOTION_DDOT": 0}, "tle": {"line1": "1 41948U 17008A   25341.23232344  .00008184  00000+0  39212-3 0  9990", "line2": "2 41948  97.4394  38.8136 0004185 180.1803 179.9431 15.19176107488431"}}, "geometry": {"type": "Point", "coordinates": [-134.52173761896677, 39.21307747548297]}}, {"type": "Feature", "properties": {"norad_id": 42063, "name": "SENTINEL-2B", "group": "resource", "lat": -55.88627446229523, "lon": -138.56585530916098, "alt_km": 796.6643507644967, "timestamp": "2025-12-07T18:50:16.381819+00:00", "meta": {"OBJECT_NAME": "SENTINEL-2B", "OBJECT_ID": "2017-013A", "EPOCH": "2025-12-07T05:59:10.846176", "MEAN_MOTION": 14.30812808, "ECCENTRICITY": 0.00011256, "INCLINATION": 98.5724, "RA_OF_ASC_NODE": 53.7724, "ARG_OF_PERICENTER": 97.7742, "MEAN_ANOMALY": 262.3568, "EPHEMERIS_TYPE": 0, "CLASSIFICATION_TYPE": "U", "NORAD_CAT_ID": 42063, "ELEMENT_SET_NO": 999, "REV_AT_EPOCH": 45719, "BSTAR": 0.00014010649, "MEAN_MOTION_DOT": 3.24e-06, "MEAN_MOTION_DDOT": 0}, "tle": {"line1": "1 42063U 17013A   25341.24943109  .00000324  00000+0  14011-3 0  9992", "line2": "2 42063  98.5724  53.7724 0001125  97.7742 262.3568 14.30812808457198"}}, "geometry": {"type": "Point", "coordinates": [-138.56585530916098, -55.88627446229523]}}, {"type": "Feature", "properties": {"norad_id": 42767, "name": "CARTOSAT-2E", "group": "resource", "lat": 49.960055169055195, "lon": 30.46986866952631, "alt_km": 504.9768056929388, "timestamp": "2025-12-07T18:50:16.381832+00:00", "meta": {"OBJECT_NAME": "CARTOSAT-2E", "OBJECT_ID": "2017-036C", "EPOCH": "2025-12-07T05:58:12.654048", "MEAN_MOTION": 15.192393, "ECCENTRICITY": 0.00023716, "INCLINATION": 97.456, "RA_OF_ASC_NODE": 38.907, "ARG_OF_PERICENTER": 265.0388, "MEAN_ANOMALY": 95.0576, "EPHEMERIS_TYPE": 0, "CLASSIFICATION_TYPE": "U", "NORAD_CAT_ID": 42767, "ELEMENT_SET_NO": 999, "REV_AT_EPOCH": 46900, "BSTAR": 0.00041239266, "MEAN_MOTION_DOT": 8.625e-05, "MEAN_MOTION_DDOT": 0}, "tle": {"line1": "1 42767U 17036C   25341.24875757  .00008625  00000+0  41239-3 0  9995", "line2": "2 42767  97.4560  38.9070 0002371 265.0388  95.0576 15.19239300469005"}}, "geometry": {"type": "Point", "coordinates": [30.46986866952631, 49.960055169055195]}}, {"type": "Feature", "properties": {"norad_id": 42920, "name": "FORMOSAT-5", "group": "resource", "lat": -58.3446381626226, "lon": -137.40173434854768, "alt_km": 727.3915534372481, "timestamp": "2025-12-07T18:50:16.381843+00:00", "meta": {"OBJECT_NAME": "FORMOSAT-5", "OBJECT_ID": "2017-049A", "EPOCH": "2025-12-07T06:09:09.230976", "MEAN_MOTION": 14.51000429, "ECCENTRICITY": 0.00101122, "INCLINATION": 98.2458, "RA_OF_ASC_NODE": 55.684, "ARG_OF_PERICENTER": 314.0369, "MEAN_ANOMALY": 45.9993, "EPHEMERIS_TYPE": 0, "CLASSIFICATION_TYPE": "U", "NORAD_CAT_ID": 42920, "ELEMENT_SET_NO": 999, "REV_AT_EPOCH": 43884, "BSTAR": 0.00014147899, "MEAN_MOTION_DOT": 5.16e-06, "MEAN_MOTION_DDOT": 0}, "tle": {"line1": "1 42920U 17049A   25341.25635684  .00000516  00000+0  14148-3 0  9994", "line2": "2 42920  98.2458  55.6840 0010112 314.0369  45.9993 14.51000429438846"}}, "geometry": {"type": "Point", "coordinates": [-137.40173434854768, -58.3446381626226]}}]}